[{"OBJECT_NAME":"ONEWEB-0287","OBJECT_ID":"2021-075C","EPOCH":"2025-10-15T19:17:49.860384","MEAN_MOTION":13.1764891,"ECCENTRICITY":0.0001794,"INCLINATION":87.9108,"RA_OF_ASC_NODE":54.4601,"ARG_OF_PERICENTER":88.5521,"MEAN_ANOMALY":271.5816,"EPHEMERIS_TYPE":0,"CLASSIFICATION_TYPE":"U","NORAD_CAT_ID":49077,"ELEMENT_SET_NO":999,"REV_AT_EPOCH":20144,"BSTAR":-0.00076669,"MEAN_MOTION_DOT":-2.85e-6,"MEAN_MOTION_DDOT":0},{"OBJECT_NAME":"ONEWEB-0288","OBJECT_ID":"2021-075D","EPOCH":"2025-10-15T18:05:56.176224","MEAN_MOTION":13.12444356,"ECCENTRICITY":0.0001864,"INCLINATION":87.896,"RA_OF_ASC_NODE":39.21,"ARG_OF_PERICENTER":98.2002,"MEAN_ANOMALY":261.9338,"EPHEMERIS_TYPE":0,"CLASSIFICATION_TYPE":"U","NORAD_CAT_ID":49078,"ELEMENT_SET_NO":999,"REV_AT_EPOCH":20312,"BSTAR":0.00090619,"MEAN_MOTION_DOT":3.39e-6,"MEAN_MOTION_DDOT":0},{"OBJECT_NAME":"ONEWEB-0289","OBJECT_ID":"2021-075E","EPOCH":"2025-10-15T14:45:29.843136","MEAN_MOTION":13.17647669,"ECCENTRICITY":0.0002152,"INCLINATION":87.9092,"RA_OF_ASC_NODE":54.5194,"ARG_OF_PERICENTER":102.0103,"MEAN_ANOMALY":258.1269,"EPHEMERIS_TYPE":0,"CLASSIFICATION_TYPE":"U","NORAD_CAT_ID":49079,"ELEMENT_SET_NO":999,"REV_AT_EPOCH":20199,"BSTAR":-8.2493e-5,"MEAN_MOTION_DOT":-1.9e-7,"MEAN_MOTION_DDOT":0},{"OBJECT_NAME":"ONEWEB-0290","OBJECT_ID":"2021-075F","EPOCH":"2025-10-15T17:45:31.278240","MEAN_MOTION":13.17648753,"ECCENTRICITY":0.0002218,"INCLINATION":87.9107,"RA_OF_ASC_NODE":54.4519,"ARG_OF_PERICENTER":109.7097,"MEAN_ANOMALY":250.4274,"EPHEMERIS_TYPE":0,"CLASSIFICATION_TYPE":"U","NORAD_CAT_ID":49080,"ELEMENT_SET_NO":999,"REV_AT_EPOCH":20142,"BSTAR":-0.00061343,"MEAN_MOTION_DOT":-2.25e-6,"MEAN_MOTION_DDOT":0},{"OBJECT_NAME":"ONEWEB-0291","OBJECT_ID":"2021-075G","EPOCH":"2025-10-15T19:12:59.871744","MEAN_MOTION":13.17648841,"ECCENTRICITY":0.0001992,"INCLINATION":87.9105,"RA_OF_ASC_NODE":54.4451,"ARG_OF_PERICENTER":91.1912,"MEAN_ANOMALY":268.9448,"EPHEMERIS_TYPE":0,"CLASSIFICATION_TYPE":"U","NORAD_CAT_ID":49081,"ELEMENT_SET_NO":999,"REV_AT_EPOCH":20142,"BSTAR":-0.00050927,"MEAN_MOTION_DOT":-1.85e-6,"MEAN_MOTION_DDOT":0},{"OBJECT_NAME":"ONEWEB-0293","OBJECT_ID":"2021-075H","EPOCH":"2025-10-15T18:00:06.170688","MEAN_MOTION":13.17648396,"ECCENTRICITY":0.0001847,"INCLINATION":87.9105,"RA_OF_ASC_NODE":54.4824,"ARG_OF_PERICENTER":98.3496,"MEAN_ANOMALY":261.7845,"EPHEMERIS_TYPE":0,"CLASSIFICATION_TYPE":"U","NORAD_CAT_ID":49082,"ELEMENT_SET_NO":999,"REV_AT_EPOCH":20144,"BSTAR":-0.00043295,"MEAN_MOTION_DOT":-1.55e-6,"MEAN_MOTION_DDOT":0},{"OBJECT_NAME":"ONEWEB-0294","OBJECT_ID":"2021-075J","EPOCH":"2025-10-15T14:35:43.137024","MEAN_MOTION":13.12442992,"ECCENTRICITY":0.0002284,"INCLINATION":87.8957,"RA_OF_ASC_NODE":39.2394,"ARG_OF_PERICENTER":103.4024,"MEAN_ANOMALY":256.7359,"EPHEMERIS_TYPE":0,"CLASSIFICATION_TYPE":"U","NORAD_CAT_ID":49083,"ELEMENT_SET_NO":999,"REV_AT_EPOCH":20249,"BSTAR":0.0010138,"MEAN_MOTION_DOT":3.77e-6,"MEAN_MOTION_DDOT":0},{"OBJECT_NAME":"ONEWEB-0295","OBJECT_ID":"2021-075K","EPOCH":"2025-10-15T17:58:51.691296","MEAN_MOTION":13.1765043,"ECCENTRICITY":0.0001974,"INCLINATION":87.9105,"RA_OF_ASC_NODE":54.4868,"ARG_OF_PERICENTER":89.2143,"MEAN_ANOMALY":270.9214,"EPHEMERIS_TYPE":0,"CLASSIFICATION_TYPE":"U","NORAD_CAT_ID":49084,"ELEMENT_SET_NO":999,"REV_AT_EPOCH":20140,"BSTAR":-0.00031269,"MEAN_MOTION_DOT":-1.09e-6,"MEAN_MOTION_DDOT":0},{"OBJECT_NAME":"ONEWEB-0296","OBJECT_ID":"2021-075L","EPOCH":"2025-10-15T14:07:41.509632","MEAN_MOTION":13.12445572,"ECCENTRICITY":0.0002187,"INCLINATION":87.8959,"RA_OF_ASC_NODE":39.2488,"ARG_OF_PERICENTER":93.1581,"MEAN_ANOMALY":266.9798,"EPHEMERIS_TYPE":0,"CLASSIFICATION_TYPE":"U","NORAD_CAT_ID":49085,"ELEMENT_SET_NO":999,"REV_AT_EPOCH":20249,"BSTAR":0.00013734,"MEAN_MOTION_DOT":6.2e-7,"MEAN_MOTION_DDOT":0},{"OBJECT_NAME":"ONEWEB-0297","OBJECT_ID":"2021-075M","EPOCH":"2025-10-15T07:32:56.297472","MEAN_MOTION":13.12442641,"ECCENTRICITY":0.00017444,"INCLINATION":87.8953,"RA_OF_ASC_NODE":39.3389,"ARG_OF_PERICENTER":97.7442,"MEAN_ANOMALY":262.3884,"EPHEMERIS_TYPE":0,"CLASSIFICATION_TYPE":"U","NORAD_CAT_ID":49086,"ELEMENT_SET_NO":999,"REV_AT_EPOCH":20306,"BSTAR":0.00071445077,"MEAN_MOTION_DOT":2.7e-6,"MEAN_MOTION_DDOT":0},{"OBJECT_NAME":"ONEWEB-0298","OBJECT_ID":"2021-075N","EPOCH":"2025-10-15T18:05:09.628224","MEAN_MOTION":13.17649837,"ECCENTRICITY":0.0001609,"INCLINATION":87.9108,"RA_OF_ASC_NODE":54.4811,"ARG_OF_PERICENTER":97.997,"MEAN_ANOMALY":262.1344,"EPHEMERIS_TYPE":0,"CLASSIFICATION_TYPE":"U","NORAD_CAT_ID":49087,"ELEMENT_SET_NO":999,"REV_AT_EPOCH":20143,"BSTAR":-0.00031296,"MEAN_MOTION_DOT":-1.09e-6,"MEAN_MOTION_DDOT":0},{"OBJECT_NAME":"ONEWEB-0299","OBJECT_ID":"2021-075P","EPOCH":"2025-10-15T18:07:22.840608","MEAN_MOTION":13.17648271,"ECCENTRICITY":0.0001697,"INCLINATION":87.9111,"RA_OF_ASC_NODE":54.4388,"ARG_OF_PERICENTER":91.687,"MEAN_ANOMALY":268.4456,"EPHEMERIS_TYPE":0,"CLASSIFICATION_TYPE":"U","NORAD_CAT_ID":49088,"ELEMENT_SET_NO":999,"REV_AT_EPOCH":20141,"BSTAR":-0.00012692,"MEAN_MOTION_DOT":-3.6e-7,"MEAN_MOTION_DDOT":0},{"OBJECT_NAME":"ONEWEB-0300","OBJECT_ID":"2021-075Q","EPOCH":"2025-10-15T14:40:23.408256","MEAN_MOTION":13.12442888,"ECCENTRICITY":0.0001445,"INCLINATION":87.896,"RA_OF_ASC_NODE":39.235,"ARG_OF_PERICENTER":102.7979,"MEAN_ANOMALY":257.3311,"EPHEMERIS_TYPE":0,"CLASSIFICATION_TYPE":"U","NORAD_CAT_ID":49089,"ELEMENT_SET_NO":999,"REV_AT_EPOCH":20312,"BSTAR":0.0011053,"MEAN_MOTION_DOT":4.1e-6,"MEAN_MOTION_DDOT":0},{"OBJECT_NAME":"ONEWEB-0301","OBJECT_ID":"2021-075R","EPOCH":"2025-10-15T17:56:34.787904","MEAN_MOTION":13.12445468,"ECCENTRICITY":0.0001286,"INCLINATION":87.8956,"RA_OF_ASC_NODE":39.2116,"ARG_OF_PERICENTER":105.2711,"MEAN_ANOMALY":254.856,"EPHEMERIS_TYPE":0,"CLASSIFICATION_TYPE":"U","NORAD_CAT_ID":49090,"ELEMENT_SET_NO":999,"REV_AT_EPOCH":20250,"BSTAR":0.0002019,"MEAN_MOTION_DOT":8.5e-7,"MEAN_MOTION_DDOT":0},{"OBJECT_NAME":"ONEWEB-0302","OBJECT_ID":"2021-075S","EPOCH":"2025-10-15T13:58:19.721280","MEAN_MOTION":13.12445141,"ECCENTRICITY":0.0002192,"INCLINATION":87.8967,"RA_OF_ASC_NODE":39.2525,"ARG_OF_PERICENTER":101.8078,"MEAN_ANOMALY":258.3297,"EPHEMERIS_TYPE":0,"CLASSIFICATION_TYPE":"U","NORAD_CAT_ID":49091,"ELEMENT_SET_NO":999,"REV_AT_EPOCH":20246,"BSTAR":-0.00047926,"MEAN_MOTION_DOT":-1.6e-6,"MEAN_MOTION_DDOT":0},{"OBJECT_NAME":"ONEWEB-0304","OBJECT_ID":"2021-075T","EPOCH":"2025-10-15T15:41:35.439360","MEAN_MOTION":13.17649074,"ECCENTRICITY":0.0001783,"INCLINATION":87.911,"RA_OF_ASC_NODE":54.4891,"ARG_OF_PERICENTER":94.2204,"MEAN_ANOMALY":265.9131,"EPHEMERIS_TYPE":0,"CLASSIFICATION_TYPE":"U","NORAD_CAT_ID":49092,"ELEMENT_SET_NO":999,"REV_AT_EPOCH":20137,"BSTAR":-0.00036127,"MEAN_MOTION_DOT":-1.27e-6,"MEAN_MOTION_DDOT":0},{"OBJECT_NAME":"ONEWEB-0305","OBJECT_ID":"2021-075U","EPOCH":"2025-10-15T19:10:34.406976","MEAN_MOTION":13.17649723,"ECCENTRICITY":0.0001827,"INCLINATION":87.9106,"RA_OF_ASC_NODE":54.4368,"ARG_OF_PERICENTER":85.6384,"MEAN_ANOMALY":274.4957,"EPHEMERIS_TYPE":0,"CLASSIFICATION_TYPE":"U","NORAD_CAT_ID":49093,"ELEMENT_SET_NO":999,"REV_AT_EPOCH":20142,"BSTAR":-0.00016847,"MEAN_MOTION_DOT":-5.3e-7,"MEAN_MOTION_DDOT":0}]
