ONEWEB-0287             
1 49077U 21075C   25288.80404931 -.00000285  00000+0 -76669-3 0  9999
2 49077  87.9108  54.4601 0001794  88.5521 271.5816 13.17648910201443
ONEWEB-0288             
1 49078U 21075D   25288.75412241  .00000339  00000+0  90619-3 0  9996
2 49078  87.8960  39.2100 0001864  98.2002 261.9338 13.12444356203126
ONEWEB-0289             
1 49079U 21075E   25288.61492874 -.00000019  00000+0 -82493-4 0  9991
2 49079  87.9092  54.5194 0002152 102.0103 258.1269 13.17647669201995
ONEWEB-0290             
1 49080U 21075F   25288.73994535 -.00000225  00000+0 -61343-3 0  9996
2 49080  87.9107  54.4519 0002218 109.7097 250.4274 13.17648753201427
ONEWEB-0291             
1 49081U 21075G   25288.80069296 -.00000185  00000+0 -50927-3 0  9993
2 49081  87.9105  54.4451 0001992  91.1912 268.9448 13.17648841201424
ONEWEB-0293             
1 49082U 21075H   25288.75007142 -.00000155  00000+0 -43295-3 0  9997
2 49082  87.9105  54.4824 0001847  98.3496 261.7845 13.17648396201443
ONEWEB-0294             
1 49083U 21075J   25288.60813816  .00000377  00000+0  10138-2 0  9998
2 49083  87.8957  39.2394 0002284 103.4024 256.7359 13.12442992202491
ONEWEB-0295             
1 49084U 21075K   25288.74920939 -.00000109  00000+0 -31269-3 0  9993
2 49084  87.9105  54.4868 0001974  89.2143 270.9214 13.17650430201402
ONEWEB-0296             
1 49085U 21075L   25288.58867488  .00000062  00000+0  13734-3 0  9998
2 49085  87.8959  39.2488 0002187  93.1581 266.9798 13.12445572202491
ONEWEB-0297             
1 49086U 21075M   25288.31454048  .00000270  00000+0  71445-3 0  9998
2 49086  87.8953  39.3389 0001744  97.7442 262.3884 13.12442641203065
ONEWEB-0298             
1 49087U 21075N   25288.75358366 -.00000109  00000+0 -31296-3 0  9996
2 49087  87.9108  54.4811 0001609  97.9970 262.1344 13.17649837201434
ONEWEB-0299             
1 49088U 21075P   25288.75512547 -.00000036  00000+0 -12692-3 0  9998
2 49088  87.9111  54.4388 0001697  91.6870 268.4456 13.17648271201417
ONEWEB-0300             
1 49089U 21075Q   25288.61138204  .00000410  00000+0  11053-2 0  9991
2 49089  87.8960  39.2350 0001445 102.7979 257.3311 13.12442888203122
ONEWEB-0301             
1 49090U 21075R   25288.74762486  .00000085  00000+0  20190-3 0  9993
2 49090  87.8956  39.2116 0001286 105.2711 254.8560 13.12445468202500
ONEWEB-0302             
1 49091U 21075S   25288.58217270 -.00000160  00000+0 -47926-3 0  9994
2 49091  87.8967  39.2525 0002192 101.8078 258.3297 13.12445141202461
ONEWEB-0304             
1 49092U 21075T   25288.65388240 -.00000127  00000+0 -36127-3 0  9993
2 49092  87.9110  54.4891 0001783  94.2204 265.9131 13.17649074201375
ONEWEB-0305             
1 49093U 21075U   25288.79900934 -.00000053  00000+0 -16847-3 0  9994
2 49093  87.9106  54.4368 0001827  85.6384 274.4957 13.17649723201420
